[{"OBJECT_NAME":"STARLINK-31110","OBJECT_ID":"2023-211N","EPOCH":"2026-03-09T09:49:13.803456","MEAN_MOTION":15.27582049,"ECCENTRICITY":0.00014537,"INCLINATION":42.9986,"RA_OF_ASC_NODE":86.6941,"ARG_OF_PERICENTER":282.2716,"MEAN_ANOMALY":77.7973,"EPHEMERIS_TYPE":0,"CLASSIFICATION_TYPE":"U","NORAD_CAT_ID":58679,"ELEMENT_SET_NO":999,"REV_AT_EPOCH":12242,"BSTAR":1.3471105e-5,"MEAN_MOTION_DOT":1.09e-6,"MEAN_MOTION_DDOT":0},{"OBJECT_NAME":"SL-3 DEB","OBJECT_ID":"1988-032D","EPOCH":"2026-03-09T21:36:49.536576","MEAN_MOTION":15.21301321,"ECCENTRICITY":0.00302448,"INCLINATION":97.5102,"RA_OF_ASC_NODE":52.3226,"ARG_OF_PERICENTER":221.5268,"MEAN_ANOMALY":138.367,"EPHEMERIS_TYPE":0,"CLASSIFICATION_TYPE":"U","NORAD_CAT_ID":25655,"ELEMENT_SET_NO":999,"REV_AT_EPOCH":5124,"BSTAR":0.00031081119,"MEAN_MOTION_DOT":6.967e-5,"MEAN_MOTION_DDOT":0}]
